CCSDS_OMM_VERS = 2.0
CREATION_DATE  = 
ORIGINATOR     = 

OBJECT_NAME    = SL-4 R/B
OBJECT_ID      = 2014-021B
CENTER_NAME    = EARTH
REF_FRAME      = TEME
TIME_SYSTEM    = UTC
MEAN_ELEMENT_THEORY = SGP/SGP4

EPOCH          = 2026-02-17T10:21:29.013984
MEAN_MOTION    = 15.38479654
ECCENTRICITY   = .0098894
INCLINATION    = 51.6060
RA_OF_ASC_NODE = 76.0523
ARG_OF_PERICENTER = 29.1592
MEAN_ANOMALY   = 331.4863

EPHEMERIS_TYPE = 0
CLASSIFICATION_TYPE = U
NORAD_CAT_ID   = 39679
ELEMENT_SET_NO = 999
REV_AT_EPOCH   = 65315
BSTAR          = .31606E-3
MEAN_MOTION_DOT = .14008E-3
MEAN_MOTION_DDOT = 0

CCSDS_OMM_VERS = 2.0
CREATION_DATE  = 
ORIGINATOR     = 

OBJECT_NAME    = ALOS-2
OBJECT_ID      = 2014-029A
CENTER_NAME    = EARTH
REF_FRAME      = TEME
TIME_SYSTEM    = UTC
MEAN_ELEMENT_THEORY = SGP/SGP4

EPOCH          = 2026-02-17T13:32:35.563200
MEAN_MOTION    = 14.79466979
ECCENTRICITY   = .0001558
INCLINATION    = 97.9212
RA_OF_ASC_NODE = 147.4520
ARG_OF_PERICENTER = 104.7095
MEAN_ANOMALY   = 255.4289

EPHEMERIS_TYPE = 0
CLASSIFICATION_TYPE = U
NORAD_CAT_ID   = 39766
ELEMENT_SET_NO = 999
REV_AT_EPOCH   = 63389
BSTAR          = .12635E-3
MEAN_MOTION_DOT = .892E-5
MEAN_MOTION_DDOT = 0

CCSDS_OMM_VERS = 2.0
CREATION_DATE  = 
ORIGINATOR     = 

OBJECT_NAME    = YAOGAN-29
OBJECT_ID      = 2015-069A
CENTER_NAME    = EARTH
REF_FRAME      = TEME
TIME_SYSTEM    = UTC
MEAN_ELEMENT_THEORY = SGP/SGP4

EPOCH          = 2026-02-17T13:15:50.320800
MEAN_MOTION    = 14.82971519
ECCENTRICITY   = .0002774
INCLINATION    = 98.0164
RA_OF_ASC_NODE = 76.9263
ARG_OF_PERICENTER = 69.2452
MEAN_ANOMALY   = 290.9059

EPHEMERIS_TYPE = 0
CLASSIFICATION_TYPE = U
NORAD_CAT_ID   = 41038
ELEMENT_SET_NO = 999
REV_AT_EPOCH   = 55289
BSTAR          = .75598E-4
MEAN_MOTION_DOT = .56E-5
MEAN_MOTION_DDOT = 0

CCSDS_OMM_VERS = 2.0
CREATION_DATE  = 
ORIGINATOR     = 

OBJECT_NAME    = ASTRO-H (HITOMI)
OBJECT_ID      = 2016-012A
CENTER_NAME    = EARTH
REF_FRAME      = TEME
TIME_SYSTEM    = UTC
MEAN_ELEMENT_THEORY = SGP/SGP4

EPOCH          = 2026-02-17T11:19:18.006816
MEAN_MOTION    = 15.09854395
ECCENTRICITY   = .0009876
INCLINATION    = 30.9990
RA_OF_ASC_NODE = 127.0023
ARG_OF_PERICENTER = 129.7747
MEAN_ANOMALY   = 230.3761

EPHEMERIS_TYPE = 0
CLASSIFICATION_TYPE = U
NORAD_CAT_ID   = 41337
ELEMENT_SET_NO = 999
REV_AT_EPOCH   = 54917
BSTAR          = .21002E-3
MEAN_MOTION_DOT = .3581E-4
MEAN_MOTION_DDOT = 0

CCSDS_OMM_VERS = 2.0
CREATION_DATE  = 
ORIGINATOR     = 

OBJECT_NAME    = HXMT (HUIYAN)
OBJECT_ID      = 2017-034A
CENTER_NAME    = EARTH
REF_FRAME      = TEME
TIME_SYSTEM    = UTC
MEAN_ELEMENT_THEORY = SGP/SGP4

EPOCH          = 2026-02-17T12:03:26.983296
MEAN_MOTION    = 15.17201798
ECCENTRICITY   = .0030572
INCLINATION    = 43.0145
RA_OF_ASC_NODE = 128.8826
ARG_OF_PERICENTER = 107.7945
MEAN_ANOMALY   = 252.6242

EPHEMERIS_TYPE = 0
CLASSIFICATION_TYPE = U
NORAD_CAT_ID   = 42758
ELEMENT_SET_NO = 999
REV_AT_EPOCH   = 47947
BSTAR          = .34709E-3
MEAN_MOTION_DOT = .6871E-4
MEAN_MOTION_DDOT = 0

CCSDS_OMM_VERS = 2.0
CREATION_DATE  = 
ORIGINATOR     = 

OBJECT_NAME    = CZ-2C R/B
OBJECT_ID      = 2018-054D
CENTER_NAME    = EARTH
REF_FRAME      = TEME
TIME_SYSTEM    = UTC
MEAN_ELEMENT_THEORY = SGP/SGP4

EPOCH          = 2026-02-17T11:51:32.507136
MEAN_MOTION    = 16.04439528
ECCENTRICITY   = .0011463
INCLINATION    = 35.1267
RA_OF_ASC_NODE = 80.7709
ARG_OF_PERICENTER = 114.8865
MEAN_ANOMALY   = 245.3070

EPHEMERIS_TYPE = 0
CLASSIFICATION_TYPE = U
NORAD_CAT_ID   = 43521
ELEMENT_SET_NO = 999
REV_AT_EPOCH   = 42565
BSTAR          = .86523E-3
MEAN_MOTION_DOT = .610028E-2
MEAN_MOTION_DDOT = .17365E-3

CCSDS_OMM_VERS = 2.0
CREATION_DATE  = 
ORIGINATOR     = 

OBJECT_NAME    = SAOCOM 1A
OBJECT_ID      = 2018-076A
CENTER_NAME    = EARTH
REF_FRAME      = TEME
TIME_SYSTEM    = UTC
MEAN_ELEMENT_THEORY = SGP/SGP4

EPOCH          = 2026-02-17T12:10:33.574656
MEAN_MOTION    = 14.82144248
ECCENTRICITY   = .0001342
INCLINATION    = 97.8871
RA_OF_ASC_NODE = 236.9653
ARG_OF_PERICENTER = 80.4878
MEAN_ANOMALY   = 279.6486

EPHEMERIS_TYPE = 0
CLASSIFICATION_TYPE = U
NORAD_CAT_ID   = 43641
ELEMENT_SET_NO = 999
REV_AT_EPOCH   = 39837
BSTAR          = -.69186E-5
MEAN_MOTION_DOT = -.107E-5
MEAN_MOTION_DDOT = 0

CCSDS_OMM_VERS = 2.0
CREATION_DATE  = 
ORIGINATOR     = 

OBJECT_NAME    = H-2A R/B
OBJECT_ID      = 2018-084L
CENTER_NAME    = EARTH
REF_FRAME      = TEME
TIME_SYSTEM    = UTC
MEAN_ELEMENT_THEORY = SGP/SGP4

EPOCH          = 2026-02-17T11:19:26.689152
MEAN_MOTION    = 15.40440613
ECCENTRICITY   = .0026385
INCLINATION    = 98.8746
RA_OF_ASC_NODE = 261.5529
ARG_OF_PERICENTER = 93.1686
MEAN_ANOMALY   = 267.2575

EPHEMERIS_TYPE = 0
CLASSIFICATION_TYPE = U
NORAD_CAT_ID   = 43682
ELEMENT_SET_NO = 999
REV_AT_EPOCH   = 40266
BSTAR          = .56554E-3
MEAN_MOTION_DOT = .23107E-3
MEAN_MOTION_DDOT = 0

CCSDS_OMM_VERS = 2.0
CREATION_DATE  = 
ORIGINATOR     = 

OBJECT_NAME    = SAOCOM 1B
OBJECT_ID      = 2020-059A
CENTER_NAME    = EARTH
REF_FRAME      = TEME
TIME_SYSTEM    = UTC
MEAN_ELEMENT_THEORY = SGP/SGP4

EPOCH          = 2026-02-17T12:55:34.506912
MEAN_MOTION    = 14.82148887
ECCENTRICITY   = .0001442
INCLINATION    = 97.8868
RA_OF_ASC_NODE = 236.0939
ARG_OF_PERICENTER = 86.8945
MEAN_ANOMALY   = 273.2433

EPHEMERIS_TYPE = 0
CLASSIFICATION_TYPE = U
NORAD_CAT_ID   = 46265
ELEMENT_SET_NO = 999
REV_AT_EPOCH   = 29576
BSTAR          = .85616E-4
MEAN_MOTION_DOT = .629E-5
MEAN_MOTION_DDOT = 0

CCSDS_OMM_VERS = 2.0
CREATION_DATE  = 
ORIGINATOR     = 

OBJECT_NAME    = CSS (TIANHE)
OBJECT_ID      = 2021-035A
CENTER_NAME    = EARTH
REF_FRAME      = TEME
TIME_SYSTEM    = UTC
MEAN_ELEMENT_THEORY = SGP/SGP4

EPOCH          = 2026-02-17T05:34:10.349472
MEAN_MOTION    = 15.59770251
ECCENTRICITY   = .0004162
INCLINATION    = 41.4683
RA_OF_ASC_NODE = 332.5551
ARG_OF_PERICENTER = 122.3722
MEAN_ANOMALY   = 237.7519

EPHEMERIS_TYPE = 0
CLASSIFICATION_TYPE = U
NORAD_CAT_ID   = 48274
ELEMENT_SET_NO = 999
REV_AT_EPOCH   = 27441
BSTAR          = .35627E-3
MEAN_MOTION_DOT = .29154E-3
MEAN_MOTION_DDOT = 0

CCSDS_OMM_VERS = 2.0
CREATION_DATE  = 
ORIGINATOR     = 

OBJECT_NAME    = CZ-2C R/B
OBJECT_ID      = 2022-058K
CENTER_NAME    = EARTH
REF_FRAME      = TEME
TIME_SYSTEM    = UTC
MEAN_ELEMENT_THEORY = SGP/SGP4

EPOCH          = 2026-02-17T10:38:13.084800
MEAN_MOTION    = 15.52770409
ECCENTRICITY   = .0042111
INCLINATION    = 50.1884
RA_OF_ASC_NODE = 62.3184
ARG_OF_PERICENTER = 114.6971
MEAN_ANOMALY   = 245.8392

EPHEMERIS_TYPE = 0
CLASSIFICATION_TYPE = U
NORAD_CAT_ID   = 52794
ELEMENT_SET_NO = 999
REV_AT_EPOCH   = 20698
BSTAR          = .56381E-3
MEAN_MOTION_DOT = .36619E-3
MEAN_MOTION_DDOT = 0

