SL-4 R/B                
1 39679U 14021B   26048.43158581  .00014008  00000+0  31606-3 0  9998
2 39679  51.6060  76.0523 0098894  29.1592 331.4863 15.38479654653153
ALOS-2                  
1 39766U 14029A   26048.56430050  .00000892  00000+0  12635-3 0  9998
2 39766  97.9212 147.4520 0001558 104.7095 255.4289 14.79466979633897
YAOGAN-29               
1 41038U 15069A   26048.55266575  .00000560  00000+0  75598-4 0  9996
2 41038  98.0164  76.9263 0002774  69.2452 290.9059 14.82971519552897
ASTRO-H (HITOMI)        
1 41337U 16012A   26048.47173619  .00003581  00000+0  21002-3 0  9990
2 41337  30.9990 127.0023 0009876 129.7747 230.3761 15.09854395549179
HXMT (HUIYAN)           
1 42758U 17034A   26048.50239564  .00006871  00000+0  34709-3 0  9992
2 42758  43.0145 128.8826 0030572 107.7945 252.6242 15.17201798479475
CZ-2C R/B               
1 43521U 18054D   26048.49412624  .00610028  17365-3  86523-3 0  9994
2 43521  35.1267  80.7709 0011463 114.8865 245.3070 16.04439528425655
SAOCOM 1A               
1 43641U 18076A   26048.50733304 -.00000107  00000+0 -69186-5 0  9999
2 43641  97.8871 236.9653 0001342  80.4878 279.6486 14.82144248398379
H-2A R/B                
1 43682U 18084L   26048.47183668  .00023107  00000+0  56554-3 0  9997
2 43682  98.8746 261.5529 0026385  93.1686 267.2575 15.40440613402664
SAOCOM 1B               
1 46265U 20059A   26048.53859383  .00000629  00000+0  85616-4 0  9999
2 46265  97.8868 236.0939 0001442  86.8945 273.2433 14.82148887295768
CSS (TIANHE)            
1 48274U 21035A   26048.23206423  .00029154  00000+0  35627-3 0  9994
2 48274  41.4683 332.5551 0004162 122.3722 237.7519 15.59770251274413
CZ-2C R/B               
1 52794U 22058K   26048.44320700  .00036619  00000+0  56381-3 0  9994
2 52794  50.1884  62.3184 0042111 114.6971 245.8392 15.52770409206985
